FENGYUN 1C DEB          
1 30391U 99025ADE 17345.62801207  .00000651  00000-0  40339-3 0  9991
2 30391  99.0416  18.7036 0081266 211.7907 264.8009 14.07155037556954
